{
  "type": "FeatureCollection",
  "features": [
    {
      "type": "Feature",
      "properties": {
        "norad_id": 64751,
        "name": "PROGRESS-MS 31",
        "group": "stations",
        "lat": 50.78959901606942,
        "lon": 148.34397316291884,
        "alt_km": 411.6836611618319,
        "timestamp": "2025-12-26T22:28:04.532754+00:00",
        "meta_object_name": "PROGRESS-MS 31",
        "meta_object_id": "2025-146A",
        "meta_epoch": "2025-12-26T12:50:01.193856",
        "meta_mean_motion": 15.49844261,
        "meta_eccentricity": 0.00032307,
        "meta_inclination": 51.632,
        "meta_ra_of_asc_node": 74.1581,
        "meta_arg_of_pericenter": 305.5588,
        "meta_mean_anomaly": 54.5099,
        "meta_ephemeris_type": 0,
        "meta_classification_type": "U",
        "meta_norad_cat_id": 64751,
        "meta_element_set_no": 999,
        "meta_rev_at_epoch": 675,
        "meta_bstar": 0.00025381537,
        "meta_mean_motion_dot": 0.00013978,
        "meta_mean_motion_ddot": 0,
        "tle_line1": "1 64751U 25146A   25360.53473604  .00013978  00000+0  25382-3 0  9999",
        "tle_line2": "2 64751  51.6320  74.1581 0003230 305.5588  54.5099 15.49844261  6754"
      },
      "geometry": {
        "type": "Point",
        "coordinates": [
          148.34397316291884,
          50.78959901606942
        ]
      }
    },
    {
      "type": "Feature",
      "properties": {
        "norad_id": 64786,
        "name": "TIANZHOU-9",
        "group": "stations",
        "lat": 16.0370906496954,
        "lon": -50.52100337286766,
        "alt_km": 389.4016429349904,
        "timestamp": "2025-12-26T22:28:04.532765+00:00",
        "meta_object_name": "TIANZHOU-9",
        "meta_object_id": "2025-149A",
        "meta_epoch": "2025-12-26T05:27:30.670848",
        "meta_mean_motion": 15.59708409,
        "meta_eccentricity": 0.00085179,
        "meta_inclination": 41.468,
        "meta_ra_of_asc_node": 294.7909,
        "meta_arg_of_pericenter": 149.5046,
        "meta_mean_anomaly": 210.6289,
        "meta_ephemeris_type": 0,
        "meta_classification_type": "U",
        "meta_norad_cat_id": 64786,
        "meta_element_set_no": 999,
        "meta_rev_at_epoch": 25530,
        "meta_bstar": 0.00023601706,
        "meta_mean_motion_dot": 0.00019151,
        "meta_mean_motion_ddot": 0,
        "tle_line1": "1 64786U 25149A   25360.22743832  .00019151  00000+0  23602-3 0  9991",
        "tle_line2": "2 64786  41.4680 294.7909 0008517 149.5046 210.6289 15.59708409255307"
      },
      "geometry": {
        "type": "Point",
        "coordinates": [
          -50.52100337286766,
          16.0370906496954
        ]
      }
    },
    {
      "type": "Feature",
      "properties": {
        "norad_id": 65077,
        "name": "CREW DRAGON 11",
        "group": "stations",
        "lat": 50.78959927051675,
        "lon": 148.34397527268692,
        "alt_km": 411.6836611639046,
        "timestamp": "2025-12-26T22:28:04.532775+00:00",
        "meta_object_name": "CREW DRAGON 11",
        "meta_object_id": "2025-166A",
        "meta_epoch": "2025-12-26T12:50:01.193856",
        "meta_mean_motion": 15.49844261,
        "meta_eccentricity": 0.00032307,
        "meta_inclination": 51.632,
        "meta_ra_of_asc_node": 74.1581,
        "meta_arg_of_pericenter": 305.5588,
        "meta_mean_anomaly": 54.5099,
        "meta_ephemeris_type": 0,
        "meta_classification_type": "U",
        "meta_norad_cat_id": 65077,
        "meta_element_set_no": 999,
        "meta_rev_at_epoch": 214,
        "meta_bstar": 0.00025381537,
        "meta_mean_motion_dot": 0.00013978,
        "meta_mean_motion_ddot": 0,
        "tle_line1": "1 65077U 25166A   25360.53473604  .00013978  00000+0  25382-3 0  9993",
        "tle_line2": "2 65077  51.6320  74.1581 0003230 305.5588  54.5099 15.49844261  2145"
      },
      "geometry": {
        "type": "Point",
        "coordinates": [
          148.34397527268692,
          50.78959927051675
        ]
      }
    },
    {
      "type": "Feature",
      "properties": {
        "norad_id": 65304,
        "name": "DRAGON CRS-33",
        "group": "stations",
        "lat": 50.78959939168215,
        "lon": 148.3439762773385,
        "alt_km": 411.6836611648878,
        "timestamp": "2025-12-26T22:28:04.532785+00:00",
        "meta_object_name": "DRAGON CRS-33",
        "meta_object_id": "2025-186A",
        "meta_epoch": "2025-12-26T12:50:01.193856",
        "meta_mean_motion": 15.49844261,
        "meta_eccentricity": 0.00032307,
        "meta_inclination": 51.632,
        "meta_ra_of_asc_node": 74.1581,
        "meta_arg_of_pericenter": 305.5588,
        "meta_mean_anomaly": 54.5099,
        "meta_ephemeris_type": 0,
        "meta_classification_type": "U",
        "meta_norad_cat_id": 65304,
        "meta_element_set_no": 999,
        "meta_rev_at_epoch": 11,
        "meta_bstar": 0.00025381537,
        "meta_mean_motion_dot": 0.00013978,
        "meta_mean_motion_ddot": 0,
        "tle_line1": "1 65304U 25186A   25360.53473604  .00013978  00000+0  25382-3 0  9998",
        "tle_line2": "2 65304  51.6320  74.1581 0003230 305.5588  54.5099 15.49844261   113"
      },
      "geometry": {
        "type": "Point",
        "coordinates": [
          148.3439762773385,
          50.78959939168215
        ]
      }
    },
    {
      "type": "Feature",
      "properties": {
        "norad_id": 65586,
        "name": "PROGRESS-MS 32",
        "group": "stations",
        "lat": 50.789599512847545,
        "lon": 148.3439772819901,
        "alt_km": 411.6836611658764,
        "timestamp": "2025-12-26T22:28:04.532795+00:00",
        "meta_object_name": "PROGRESS-MS 32",
        "meta_object_id": "2025-204A",
        "meta_epoch": "2025-12-26T12:50:01.193856",
        "meta_mean_motion": 15.49844261,
        "meta_eccentricity": 0.00032307,
        "meta_inclination": 51.632,
        "meta_ra_of_asc_node": 74.1581,
        "meta_arg_of_pericenter": 305.5588,
        "meta_mean_anomaly": 54.5099,
        "meta_ephemeris_type": 0,
        "meta_classification_type": "U",
        "meta_norad_cat_id": 65586,
        "meta_element_set_no": 999,
        "meta_rev_at_epoch": 27,
        "meta_bstar": 0.00025381537,
        "meta_mean_motion_dot": 0.00013978,
        "meta_mean_motion_ddot": 0,
        "tle_line1": "1 65586U 25204A   25360.53473604  .00013978  00000+0  25382-3 0  9991",
        "tle_line2": "2 65586  51.6320  74.1581 0003230 305.5588  54.5099 15.49844261   272"
      },
      "geometry": {
        "type": "Point",
        "coordinates": [
          148.3439772819901,
          50.789599512847545
        ]
      }
    },
    {
      "type": "Feature",
      "properties": {
        "norad_id": 65616,
        "name": "CYGNUS NG-23",
        "group": "stations",
        "lat": 50.789599634012845,
        "lon": 148.34397828664106,
        "alt_km": 411.6836611668605,
        "timestamp": "2025-12-26T22:28:04.532805+00:00",
        "meta_object_name": "CYGNUS NG-23",
        "meta_object_id": "2025-208A",
        "meta_epoch": "2025-12-26T12:50:01.193856",
        "meta_mean_motion": 15.49844261,
        "meta_eccentricity": 0.00032307,
        "meta_inclination": 51.632,
        "meta_ra_of_asc_node": 74.1581,
        "meta_arg_of_pericenter": 305.5588,
        "meta_mean_anomaly": 54.5099,
        "meta_ephemeris_type": 0,
        "meta_classification_type": "U",
        "meta_norad_cat_id": 65616,
        "meta_element_set_no": 999,
        "meta_rev_at_epoch": 22,
        "meta_bstar": 0.00025381537,
        "meta_mean_motion_dot": 0.00013978,
        "meta_mean_motion_ddot": 0,
        "tle_line1": "1 65616U 25208A   25360.53473604  .00013978  00000+0  25382-3 0  9999",
        "tle_line2": "2 65616  51.6320  74.1581 0003230 305.5588  54.5099 15.49844261   221"
      },
      "geometry": {
        "type": "Point",
        "coordinates": [
          148.34397828664106,
          50.789599634012845
        ]
      }
    },
    {
      "type": "Feature",
      "properties": {
        "norad_id": 65729,
        "name": "DRAGONFLY",
        "group": "stations",
        "lat": -43.376866651839364,
        "lon": -68.70889030298352,
        "alt_km": 345.8997358585111,
        "timestamp": "2025-12-26T22:28:04.532816+00:00",
        "meta_object_name": "DRAGONFLY",
        "meta_object_id": "1998-067XH",
        "meta_epoch": "2025-12-26T10:48:09.332064",
        "meta_mean_motion": 15.76805342,
        "meta_eccentricity": 0.0008231,
        "meta_inclination": 51.6248,
        "meta_ra_of_asc_node": 65.3139,
        "meta_arg_of_pericenter": 358.0707,
        "meta_mean_anomaly": 2.026,
        "meta_ephemeris_type": 0,
        "meta_classification_type": "U",
        "meta_norad_cat_id": 65729,
        "meta_element_set_no": 999,
        "meta_rev_at_epoch": 1532,
        "meta_bstar": 0.0012148,
        "meta_mean_motion_dot": 0.00204396,
        "meta_mean_motion_ddot": 0,
        "tle_line1": "1 65729U 98067XH  25360.45010801  .00204396  00000+0  12148-2 0  9995",
        "tle_line2": "2 65729  51.6248  65.3139 0008231 358.0707   2.0260 15.76805342 15320"
      },
      "geometry": {
        "type": "Point",
        "coordinates": [
          -68.70889030298352,
          -43.376866651839364
        ]
      }
    }
  ]
}